OBJECT_NAME,OBJECT_ID,EPOCH,MEAN_MOTION,ECCENTRICITY,INCLINATION,RA_OF_ASC_NODE,ARG_OF_PERICENTER,MEAN_ANOMALY,EPHEMERIS_TYPE,CLASSIFICATION_TYPE,NORAD_CAT_ID,ELEMENT_SET_NO,REV_AT_EPOCH,BSTAR,MEAN_MOTION_DOT,MEAN_MOTION_DDOT
LEMUR-2-FINNIAN,2025-276DX,2026-07-14T10:07:12.706176,15.00610397,.00084412,97.5382,265.5655,359.1143,1.0065,0,U,66782,999,2408,.13038039E-3,.159E-4,0
LEMUR-2-STARLIGHT,2025-276DY,2026-07-14T17:38:50.687232,14.99351208,.00147926,97.5235,265.4323,48.7667,311.4829,0,U,66783,999,3432,.31171199E-3,.3763E-4,0
LEMUR-2-TARTIFLETTE,2025-276DZ,2026-07-14T17:36:32.058432,14.99336751,.00139376,97.5235,265.4388,57.0053,303.2508,0,U,66784,999,3432,.28902556E-3,.3482E-4,0
LEMUR-2-VUKASIN,2025-276EA,2026-07-14T21:42:27.533376,15.00545067,.00030914,97.5228,265.9622,55.8978,304.2540,0,U,66785,999,3430,.20886322E-3,.2577E-4,0
LEMUR-2-HOTSPUR-TOM,2025-276EB,2026-07-14T17:28:25.762944,14.99238405,.00138052,97.5220,265.4077,48.2453,311.9949,0,U,66786,999,3425,.24802372E-3,.2972E-4,0
LEMUR-2-MYRA,2025-276EC,2026-07-14T17:40:20.487936,15.00586112,.00186921,97.5222,265.7188,55.6926,304.6064,0,U,66787,999,3434,.27269512E-3,.3398E-4,0
LEMUR-2 FIKRETDENGIZ,2026-004A,2026-07-14T13:30:21.975840,14.88514452,.0010235,97.8023,193.7044,57.7047,302.5160,0,U,67363,999,2735,.214E-3,.1936E-4,0
TWILIGHT-1 OBJECT B,2026-004B,2026-07-14T22:27:38.836224,14.87793091,.00097592,97.8075,194.0728,46.7281,313.4749,0,U,67364,999,2741,.10602585E-3,.914E-5,0
LEMUR-2-MARIO-SOUSA,2026-004C,2026-07-14T22:42:13.021056,14.88726344,.00098469,97.7997,194.0770,57.7457,302.4713,0,U,67365,999,2742,.28591694E-3,.2619E-4,0
LEMUR-2-SONNENBLUME,2026-004E,2026-07-14T22:46:15.491424,14.88452492,.00094085,97.8000,194.0524,58.8207,301.3931,0,U,67367,999,2742,.16136144E-3,.1444E-4,0
LEMUR-2-WOBLER,2026-004F,2026-07-14T22:30:53.576640,14.88696543,.0009485,97.8047,194.1927,50.9582,309.2478,0,U,67368,999,2742,.24566812E-3,.224E-4,0
LEMUR-2-GRAM-E-SUE,2026-004H,2026-07-14T22:19:32.034432,14.88588831,.00086233,97.7986,194.0508,61.5395,298.6690,0,U,67370,999,2742,.14038176E-3,.1253E-4,0
LEMUR-2-KATIE,2026-004AA,2026-07-14T21:17:59.266464,14.90250246,.00035685,97.8043,194.5592,34.5080,325.6369,0,U,67387,999,2743,.29720517E-3,.2829E-4,0
LEMUR-2-HCS-BAZUS,2026-004AB,2026-07-14T21:15:37.358784,14.90260521,.00030262,97.8038,194.5358,33.5507,326.5902,0,U,67388,999,2743,.16582226E-3,.1554E-4,0
